ONEWEB-0142             
1 47288U 20100AG  24048.55845203 -.00000319  00000+0 -92235-3 0  9990
2 47288  87.9043 159.9133 0001423 110.8099 249.3182 13.12441271153094
ONEWEB-0143             
1 47289U 20100AH  24048.58784738  .00000212  00000+0  55493-3 0  9994
2 47289  87.9045 159.9267 0001746 107.9652 252.1667 13.12444998153072
ONEWEB-0144             
1 47290U 20100AJ  24048.56083325 -.00000355  00000+0 -10220-2 0  9996
2 47290  87.9044 159.9160 0001302 106.3428 253.7844 13.12441216152991
ONEWEB-0145             
1 47291U 20100AK  24048.53225790  .00000415  00000+0  11182-2 0  9991
2 47291  87.9044 159.9455 0001537 107.1969 252.9328 13.12442762153185
ONEWEB-0146             
1 47292U 20100AL  24048.37504168  .00000496  00000+0  13446-2 0  9997
2 47292  87.9044 159.9585 0002199 107.8307 252.3062 13.12443327153073
ONEWEB-0147             
1 47293U 20100AM  24048.57037234 -.00000260  00000+0 -75731-3 0  9992
2 47293  87.9040 159.9186 0001585  94.8968 265.2342 13.12444239152990
ONEWEB-0115             
1 48042U 21025A   24048.50019207 -.00000115  00000+0 -34885-3 0  9999
2 48042  87.8987 129.5842 0002032 103.1621 256.9734 13.13470614141922
ONEWEB-0152             
1 48043U 21025B   24048.58907735  .00000280  00000+0  73224-3 0  9991
2 48043  87.8990 129.5591 0001885 101.2800 258.8541 13.13470823141896
